[{"OBJECT_NAME":"IRIDIUM 151","OBJECT_ID":"2017-083E","EPOCH":"2026-04-04T23:17:51.038304","MEAN_MOTION":14.3421696,"ECCENTRICITY":0.00022524,"INCLINATION":86.4016,"RA_OF_ASC_NODE":352.6666,"ARG_OF_PERICENTER":84.675,"MEAN_ANOMALY":275.4703,"EPHEMERIS_TYPE":0,"CLASSIFICATION_TYPE":"U","NORAD_CAT_ID":43074,"ELEMENT_SET_NO":999,"REV_AT_EPOCH":43364,"BSTAR":5.0539267e-5,"MEAN_MOTION_DOT":1.61e-6,"MEAN_MOTION_DDOT":0},{"OBJECT_NAME":"IRIDIUM 134","OBJECT_ID":"2017-083F","EPOCH":"2026-04-04T17:30:47.158272","MEAN_MOTION":14.34218619,"ECCENTRICITY":0.00022268,"INCLINATION":86.4019,"RA_OF_ASC_NODE":352.774,"ARG_OF_PERICENTER":88.9154,"MEAN_ANOMALY":271.2297,"EPHEMERIS_TYPE":0,"CLASSIFICATION_TYPE":"U","NORAD_CAT_ID":43075,"ELEMENT_SET_NO":999,"REV_AT_EPOCH":43357,"BSTAR":9.9197881e-5,"MEAN_MOTION_DOT":2.98e-6,"MEAN_MOTION_DDOT":0},{"OBJECT_NAME":"IRIDIUM 137","OBJECT_ID":"2017-083G","EPOCH":"2026-04-04T22:50:27.288672","MEAN_MOTION":14.3422127,"ECCENTRICITY":0.0002598,"INCLINATION":86.4021,"RA_OF_ASC_NODE":352.7726,"ARG_OF_PERICENTER":80.361,"MEAN_ANOMALY":279.7879,"EPHEMERIS_TYPE":0,"CLASSIFICATION_TYPE":"U","NORAD_CAT_ID":43076,"ELEMENT_SET_NO":999,"REV_AT_EPOCH":43367,"BSTAR":0.00012528389,"MEAN_MOTION_DOT":3.71e-6,"MEAN_MOTION_DDOT":0},{"OBJECT_NAME":"IRIDIUM 141","OBJECT_ID":"2017-083H","EPOCH":"2026-04-04T22:41:19.331232","MEAN_MOTION":14.34219548,"ECCENTRICITY":0.00020792,"INCLINATION":86.4016,"RA_OF_ASC_NODE":352.6101,"ARG_OF_PERICENTER":83.848,"MEAN_ANOMALY":276.2953,"EPHEMERIS_TYPE":0,"CLASSIFICATION_TYPE":"U","NORAD_CAT_ID":43077,"ELEMENT_SET_NO":999,"REV_AT_EPOCH":43367,"BSTAR":0.00012488898,"MEAN_MOTION_DOT":3.7e-6,"MEAN_MOTION_DDOT":0},{"OBJECT_NAME":"IRIDIUM 153","OBJECT_ID":"2017-083J","EPOCH":"2026-04-04T21:32:27.301344","MEAN_MOTION":14.34218415,"ECCENTRICITY":0.00018737,"INCLINATION":86.3967,"RA_OF_ASC_NODE":321.1337,"ARG_OF_PERICENTER":87.5135,"MEAN_ANOMALY":272.6275,"EPHEMERIS_TYPE":0,"CLASSIFICATION_TYPE":"U","NORAD_CAT_ID":43078,"ELEMENT_SET_NO":999,"REV_AT_EPOCH":43477,"BSTAR":6.0577258e-5,"MEAN_MOTION_DOT":1.89e-6,"MEAN_MOTION_DDOT":0},{"OBJECT_NAME":"IRIDIUM 131","OBJECT_ID":"2017-083K","EPOCH":"2026-04-04T19:02:07.130112","MEAN_MOTION":14.34218642,"ECCENTRICITY":0.0002173,"INCLINATION":86.4021,"RA_OF_ASC_NODE":352.8546,"ARG_OF_PERICENTER":82.7055,"MEAN_ANOMALY":277.4388,"EPHEMERIS_TYPE":0,"CLASSIFICATION_TYPE":"U","NORAD_CAT_ID":43079,"ELEMENT_SET_NO":999,"REV_AT_EPOCH":43358,"BSTAR":7.9874e-5,"MEAN_MOTION_DOT":2.43e-6,"MEAN_MOTION_DDOT":0},{"OBJECT_NAME":"IRIDIUM 144","OBJECT_ID":"2018-030A","EPOCH":"2026-04-04T21:41:35.371104","MEAN_MOTION":14.3421757,"ECCENTRICITY":0.00022681,"INCLINATION":86.3965,"RA_OF_ASC_NODE":321.062,"ARG_OF_PERICENTER":88.1702,"MEAN_ANOMALY":271.9754,"EPHEMERIS_TYPE":0,"CLASSIFICATION_TYPE":"U","NORAD_CAT_ID":43249,"ELEMENT_SET_NO":999,"REV_AT_EPOCH":41963,"BSTAR":4.1718188e-5,"MEAN_MOTION_DOT":1.37e-6,"MEAN_MOTION_DDOT":0},{"OBJECT_NAME":"IRIDIUM 149","OBJECT_ID":"2018-030B","EPOCH":"2026-04-04T21:50:43.376064","MEAN_MOTION":14.34217426,"ECCENTRICITY":0.00020053,"INCLINATION":86.3962,"RA_OF_ASC_NODE":321.0273,"ARG_OF_PERICENTER":85.4594,"MEAN_ANOMALY":274.6831,"EPHEMERIS_TYPE":0,"CLASSIFICATION_TYPE":"U","NORAD_CAT_ID":43250,"ELEMENT_SET_NO":999,"REV_AT_EPOCH":41965,"BSTAR":1.694974e-5,"MEAN_MOTION_DOT":6.7e-7,"MEAN_MOTION_DDOT":0},{"OBJECT_NAME":"IRIDIUM 157","OBJECT_ID":"2018-030C","EPOCH":"2026-04-04T17:16:43.274784","MEAN_MOTION":14.34219012,"ECCENTRICITY":0.00021087,"INCLINATION":86.3965,"RA_OF_ASC_NODE":321.1584,"ARG_OF_PERICENTER":86.6567,"MEAN_ANOMALY":273.487,"EPHEMERIS_TYPE":0,"CLASSIFICATION_TYPE":"U","NORAD_CAT_ID":43251,"ELEMENT_SET_NO":999,"REV_AT_EPOCH":41960,"BSTAR":8.4715877e-5,"MEAN_MOTION_DOT":2.57e-6,"MEAN_MOTION_DDOT":0},{"OBJECT_NAME":"IRIDIUM 140","OBJECT_ID":"2018-030D","EPOCH":"2026-04-04T21:05:03.359040","MEAN_MOTION":14.34217849,"ECCENTRICITY":0.00020447,"INCLINATION":86.3964,"RA_OF_ASC_NODE":321.1044,"ARG_OF_PERICENTER":88.9103,"MEAN_ANOMALY":271.2327,"EPHEMERIS_TYPE":0,"CLASSIFICATION_TYPE":"U","NORAD_CAT_ID":43252,"ELEMENT_SET_NO":999,"REV_AT_EPOCH":41968,"BSTAR":-2.3305164e-5,"MEAN_MOTION_DOT":-4.5e-7,"MEAN_MOTION_DDOT":0},{"OBJECT_NAME":"IRIDIUM 145","OBJECT_ID":"2018-030E","EPOCH":"2026-04-04T15:45:23.422176","MEAN_MOTION":14.34218438,"ECCENTRICITY":0.000247,"INCLINATION":86.3964,"RA_OF_ASC_NODE":321.17,"ARG_OF_PERICENTER":90.5198,"MEAN_ANOMALY":269.628,"EPHEMERIS_TYPE":0,"CLASSIFICATION_TYPE":"U","NORAD_CAT_ID":43253,"ELEMENT_SET_NO":999,"REV_AT_EPOCH":41958,"BSTAR":5.5198e-5,"MEAN_MOTION_DOT":1.74e-6,"MEAN_MOTION_DDOT":0},{"OBJECT_NAME":"IRIDIUM 146","OBJECT_ID":"2018-030F","EPOCH":"2026-04-04T21:59:51.357696","MEAN_MOTION":14.34218582,"ECCENTRICITY":0.00022577,"INCLINATION":86.3963,"RA_OF_ASC_NODE":321.0737,"ARG_OF_PERICENTER":87.158,"MEAN_ANOMALY":272.9874,"EPHEMERIS_TYPE":0,"CLASSIFICATION_TYPE":"U","NORAD_CAT_ID":43254,"ELEMENT_SET_NO":999,"REV_AT_EPOCH":41963,"BSTAR":6.5944523e-5,"MEAN_MOTION_DOT":2.04e-6,"MEAN_MOTION_DDOT":0},{"OBJECT_NAME":"IRIDIUM 148","OBJECT_ID":"2018-030G","EPOCH":"2026-04-04T21:14:10.699584","MEAN_MOTION":14.34221561,"ECCENTRICITY":0.00021497,"INCLINATION":86.3966,"RA_OF_ASC_NODE":321.1291,"ARG_OF_PERICENTER":85.5219,"MEAN_ANOMALY":274.6222,"EPHEMERIS_TYPE":0,"CLASSIFICATION_TYPE":"U","NORAD_CAT_ID":43255,"ELEMENT_SET_NO":999,"REV_AT_EPOCH":41966,"BSTAR":0.0001087507,"MEAN_MOTION_DOT":3.24e-6,"MEAN_MOTION_DDOT":0},{"OBJECT_NAME":"IRIDIUM 142","OBJECT_ID":"2018-030H","EPOCH":"2026-04-04T22:08:59.341056","MEAN_MOTION":14.34218732,"ECCENTRICITY":0.00023914,"INCLINATION":86.3961,"RA_OF_ASC_NODE":321.0048,"ARG_OF_PERICENTER":89.8337,"MEAN_ANOMALY":270.3132,"EPHEMERIS_TYPE":0,"CLASSIFICATION_TYPE":"U","NORAD_CAT_ID":43256,"ELEMENT_SET_NO":999,"REV_AT_EPOCH":41963,"BSTAR":6.2312539e-5,"MEAN_MOTION_DOT":1.94e-6,"MEAN_MOTION_DDOT":0},{"OBJECT_NAME":"IRIDIUM 150","OBJECT_ID":"2018-030J","EPOCH":"2026-04-04T21:23:19.377600","MEAN_MOTION":14.34218097,"ECCENTRICITY":0.00021705,"INCLINATION":86.3967,"RA_OF_ASC_NODE":321.132,"ARG_OF_PERICENTER":88.0764,"MEAN_ANOMALY":272.0681,"EPHEMERIS_TYPE":0,"CLASSIFICATION_TYPE":"U","NORAD_CAT_ID":43257,"ELEMENT_SET_NO":999,"REV_AT_EPOCH":41965,"BSTAR":3.6902936e-5,"MEAN_MOTION_DOT":1.23e-6,"MEAN_MOTION_DDOT":0},{"OBJECT_NAME":"IRIDIUM 143","OBJECT_ID":"2018-030K","EPOCH":"2026-04-04T20:55:55.271136","MEAN_MOTION":14.34217016,"ECCENTRICITY":0.000228,"INCLINATION":86.3969,"RA_OF_ASC_NODE":321.2295,"ARG_OF_PERICENTER":89.0114,"MEAN_ANOMALY":271.1343,"EPHEMERIS_TYPE":0,"CLASSIFICATION_TYPE":"U","NORAD_CAT_ID":43258,"ELEMENT_SET_NO":999,"REV_AT_EPOCH":41958,"BSTAR":0.00010445045,"MEAN_MOTION_DOT":3.12e-6,"MEAN_MOTION_DDOT":0},{"OBJECT_NAME":"IRIDIUM 161","OBJECT_ID":"2018-047C","EPOCH":"2026-04-04T14:36:55.054656","MEAN_MOTION":14.43278006,"ECCENTRICITY":0.0002162,"INCLINATION":86.4454,"RA_OF_ASC_NODE":119.2465,"ARG_OF_PERICENTER":85.0212,"MEAN_ANOMALY":275.1235,"EPHEMERIS_TYPE":0,"CLASSIFICATION_TYPE":"U","NORAD_CAT_ID":43478,"ELEMENT_SET_NO":999,"REV_AT_EPOCH":41452,"BSTAR":5.5247e-5,"MEAN_MOTION_DOT":2.06e-6,"MEAN_MOTION_DDOT":0}]
