IRIDIUM 151             
1 43074U 17083E   26094.97072961  .00000161  00000+0  50539-4 0  9992
2 43074  86.4016 352.6666 0002252  84.6750 275.4703 14.34216960433644
IRIDIUM 134             
1 43075U 17083F   26094.72971248  .00000298  00000+0  99198-4 0  9997
2 43075  86.4019 352.7740 0002226  88.9154 271.2297 14.34218619433575
IRIDIUM 137             
1 43076U 17083G   26094.95170473  .00000371  00000+0  12528-3 0  9997
2 43076  86.4021 352.7726 0002598  80.3610 279.7879 14.34221270433675
IRIDIUM 141             
1 43077U 17083H   26094.94536263  .00000370  00000+0  12489-3 0  9995
2 43077  86.4016 352.6101 0002079  83.8480 276.2953 14.34219548433673
IRIDIUM 153             
1 43078U 17083J   26094.89753821  .00000189  00000+0  60577-4 0  9991
2 43078  86.3967 321.1337 0001873  87.5135 272.6275 14.34218415434770
IRIDIUM 131             
1 43079U 17083K   26094.79313808  .00000243  00000+0  79874-4 0  9999
2 43079  86.4021 352.8546 0002173  82.7055 277.4388 14.34218642433586
IRIDIUM 144             
1 43249U 18030A   26094.90388161  .00000137  00000+0  41718-4 0  9996
2 43249  86.3965 321.0620 0002268  88.1702 271.9754 14.34217570419631
IRIDIUM 149             
1 43250U 18030B   26094.91022426  .00000067  00000+0  16950-4 0  9990
2 43250  86.3962 321.0273 0002005  85.4594 274.6831 14.34217426419650
IRIDIUM 157             
1 43251U 18030C   26094.71994531  .00000257  00000+0  84716-4 0  9990
2 43251  86.3965 321.1584 0002108  86.6567 273.4870 14.34219012419605
IRIDIUM 140             
1 43252U 18030D   26094.87851110 -.00000045  00000+0 -23305-4 0  9997
2 43252  86.3964 321.1044 0002044  88.9103 271.2327 14.34217849419683
IRIDIUM 145             
1 43253U 18030E   26094.65652109  .00000174  00000+0  55198-4 0  9997
2 43253  86.3964 321.1700 0002470  90.5198 269.6280 14.34218438419582
IRIDIUM 146             
1 43254U 18030F   26094.91656664  .00000204  00000+0  65945-4 0  9992
2 43254  86.3963 321.0737 0002257  87.1580 272.9874 14.34218582419633
IRIDIUM 148             
1 43255U 18030G   26094.88484606  .00000324  00000+0  10875-3 0  9998
2 43255  86.3966 321.1291 0002149  85.5219 274.6222 14.34221561419664
IRIDIUM 142             
1 43256U 18030H   26094.92290904  .00000194  00000+0  62313-4 0  9990
2 43256  86.3961 321.0048 0002391  89.8337 270.3132 14.34218732419632
IRIDIUM 150             
1 43257U 18030J   26094.89119650  .00000123  00000+0  36903-4 0  9993
2 43257  86.3967 321.1320 0002170  88.0764 272.0681 14.34218097419657
IRIDIUM 143             
1 43258U 18030K   26094.87216749  .00000312  00000+0  10445-3 0  9991
2 43258  86.3969 321.2295 0002280  89.0114 271.1343 14.34217016419581
IRIDIUM 161             
1 43478U 18047C   26094.60897054  .00000206  00000+0  55247-4 0  9990
2 43478  86.4454 119.2465 0002162  85.0212 275.1235 14.43278006414522
